{
  "type": "FeatureCollection",
  "features": [
    {
      "type": "Feature",
      "properties": {
        "norad_id": 31744,
        "name": "FENGYUN 1C DEB",
        "group": "fengyun-1c-debris",
        "lat": -70.90221214548374,
        "lon": 125.62186845947754,
        "alt_km": 946.4639455474007,
        "timestamp": "2025-12-12T09:49:09.015799+00:00",
        "meta_object_name": "FENGYUN 1C DEB",
        "meta_object_id": "1999-025CET",
        "meta_epoch": "2025-12-11T13:49:09.351552",
        "meta_mean_motion": 14.16538504,
        "meta_eccentricity": 0.03146654,
        "meta_inclination": 99.304,
        "meta_ra_of_asc_node": 96.49,
        "meta_arg_of_pericenter": 47.4762,
        "meta_mean_anomaly": 315.2531,
        "meta_ephemeris_type": 0,
        "meta_classification_type": "U",
        "meta_norad_cat_id": 31744,
        "meta_element_set_no": 999,
        "meta_rev_at_epoch": 94598,
        "meta_bstar": 0.0022898036,
        "meta_mean_motion_dot": 7.367e-05,
        "meta_mean_motion_ddot": 0,
        "tle_line1": "1 31744U 99025CET 25345.57580268  .00007367  00000+0  22898-2 0  9997",
        "tle_line2": "2 31744  99.3040  96.4900 0314665  47.4762 315.2531 14.16538504945981"
      },
      "geometry": {
        "type": "Point",
        "coordinates": [
          125.62186845947754,
          -70.90221214548374
        ]
      }
    },
    {
      "type": "Feature",
      "properties": {
        "norad_id": 31746,
        "name": "FENGYUN 1C DEB",
        "group": "fengyun-1c-debris",
        "lat": -67.66148303311245,
        "lon": 130.54457120081247,
        "alt_km": 645.2114491549719,
        "timestamp": "2025-12-12T09:49:09.015810+00:00",
        "meta_object_name": "FENGYUN 1C DEB",
        "meta_object_id": "1999-025CEV",
        "meta_epoch": "2025-12-08T13:25:49.648224",
        "meta_mean_motion": 14.76434428,
        "meta_eccentricity": 0.0023745,
        "meta_inclination": 98.5888,
        "meta_ra_of_asc_node": 104.8721,
        "meta_arg_of_pericenter": 218.9091,
        "meta_mean_anomaly": 141.0408,
        "meta_ephemeris_type": 0,
        "meta_classification_type": "U",
        "meta_norad_cat_id": 31746,
        "meta_element_set_no": 999,
        "meta_rev_at_epoch": 96966,
        "meta_bstar": 0.0049017,
        "meta_mean_motion_dot": 0.00034355,
        "meta_mean_motion_ddot": 0,
        "tle_line1": "1 31746U 99025CEV 25342.55960241  .00034355  00000+0  49017-2 0  9996",
        "tle_line2": "2 31746  98.5888 104.8721 0023745 218.9091 141.0408 14.76434428969660"
      },
      "geometry": {
        "type": "Point",
        "coordinates": [
          130.54457120081247,
          -67.66148303311245
        ]
      }
    },
    {
      "type": "Feature",
      "properties": {
        "norad_id": 31752,
        "name": "FENGYUN 1C DEB",
        "group": "fengyun-1c-debris",
        "lat": -67.36279412393631,
        "lon": 81.47787087699179,
        "alt_km": 733.2907788369184,
        "timestamp": "2025-12-12T09:49:09.015820+00:00",
        "meta_object_name": "FENGYUN 1C DEB",
        "meta_object_id": "1999-025CFB",
        "meta_epoch": "2025-12-11T11:43:13.870272",
        "meta_mean_motion": 13.93031524,
        "meta_eccentricity": 0.03558955,
        "meta_inclination": 98.9781,
        "meta_ra_of_asc_node": 58.305,
        "meta_arg_of_pericenter": 337.1774,
        "meta_mean_anomaly": 21.3897,
        "meta_ephemeris_type": 0,
        "meta_classification_type": "U",
        "meta_norad_cat_id": 31752,
        "meta_element_set_no": 999,
        "meta_rev_at_epoch": 93573,
        "meta_bstar": 0.002163174,
        "meta_mean_motion_dot": 4.698e-05,
        "meta_mean_motion_ddot": 0,
        "tle_line1": "1 31752U 99025CFB 25345.48835498  .00004698  00000+0  21632-2 0  9993",
        "tle_line2": "2 31752  98.9781  58.3050 0355895 337.1774  21.3897 13.93031524935738"
      },
      "geometry": {
        "type": "Point",
        "coordinates": [
          81.47787087699179,
          -67.36279412393631
        ]
      }
    },
    {
      "type": "Feature",
      "properties": {
        "norad_id": 31753,
        "name": "FENGYUN 1C DEB",
        "group": "fengyun-1c-debris",
        "lat": 11.219019545161638,
        "lon": -158.73690510338952,
        "alt_km": 717.3617658261164,
        "timestamp": "2025-12-12T09:49:09.015831+00:00",
        "meta_object_name": "FENGYUN 1C DEB",
        "meta_object_id": "1999-025CFC",
        "meta_epoch": "2025-12-10T01:18:33.226272",
        "meta_mean_motion": 14.18631258,
        "meta_eccentricity": 0.01589595,
        "meta_inclination": 98.6327,
        "meta_ra_of_asc_node": 17.2437,
        "meta_arg_of_pericenter": 181.5018,
        "meta_mean_anomaly": 208.9772,
        "meta_ephemeris_type": 0,
        "meta_classification_type": "U",
        "meta_norad_cat_id": 31753,
        "meta_element_set_no": 999,
        "meta_rev_at_epoch": 95981,
        "meta_bstar": 0.00046159825,
        "meta_mean_motion_dot": 1.042e-05,
        "meta_mean_motion_ddot": 0,
        "tle_line1": "1 31753U 99025CFC 25344.05455123  .00001042  00000+0  46160-3 0  9993",
        "tle_line2": "2 31753  98.6327  17.2437 0158959 181.5018 208.9772 14.18631258959817"
      },
      "geometry": {
        "type": "Point",
        "coordinates": [
          -158.73690510338952,
          11.219019545161638
        ]
      }
    },
    {
      "type": "Feature",
      "properties": {
        "norad_id": 31754,
        "name": "FENGYUN 1C DEB",
        "group": "fengyun-1c-debris",
        "lat": -52.70008364216336,
        "lon": 119.61884476459402,
        "alt_km": 724.0764952125373,
        "timestamp": "2025-12-12T09:49:09.015842+00:00",
        "meta_object_name": "FENGYUN 1C DEB",
        "meta_object_id": "1999-025CFD",
        "meta_epoch": "2025-12-11T21:04:59.857248",
        "meta_mean_motion": 14.42250723,
        "meta_eccentricity": 0.0049165,
        "meta_inclination": 99.0404,
        "meta_ra_of_asc_node": 311.1204,
        "meta_arg_of_pericenter": 220.4005,
        "meta_mean_anomaly": 139.3527,
        "meta_ephemeris_type": 0,
        "meta_classification_type": "U",
        "meta_norad_cat_id": 31754,
        "meta_element_set_no": 999,
        "meta_rev_at_epoch": 96977,
        "meta_bstar": 0.0016224,
        "meta_mean_motion_dot": 5.382e-05,
        "meta_mean_motion_ddot": 0,
        "tle_line1": "1 31754U 99025CFD 25345.87847057  .00005382  00000+0  16224-2 0  9994",
        "tle_line2": "2 31754  99.0404 311.1204 0049165 220.4005 139.3527 14.42250723969776"
      },
      "geometry": {
        "type": "Point",
        "coordinates": [
          119.61884476459402,
          -52.70008364216336
        ]
      }
    },
    {
      "type": "Feature",
      "properties": {
        "norad_id": 31757,
        "name": "FENGYUN 1C DEB",
        "group": "fengyun-1c-debris",
        "lat": -75.58307649732217,
        "lon": 45.38502836146753,
        "alt_km": 1024.9168621045992,
        "timestamp": "2025-12-12T09:49:09.015852+00:00",
        "meta_object_name": "FENGYUN 1C DEB",
        "meta_object_id": "1999-025CFG",
        "meta_epoch": "2025-12-10T07:01:55.738272",
        "meta_mean_motion": 14.07915605,
        "meta_eccentricity": 0.0217958,
        "meta_inclination": 98.7682,
        "meta_ra_of_asc_node": 6.432,
        "meta_arg_of_pericenter": 90.9407,
        "meta_mean_anomaly": 271.6741,
        "meta_ephemeris_type": 0,
        "meta_classification_type": "U",
        "meta_norad_cat_id": 31757,
        "meta_element_set_no": 999,
        "meta_rev_at_epoch": 63847,
        "meta_bstar": 0.00035867,
        "meta_mean_motion_dot": 7.16e-06,
        "meta_mean_motion_ddot": 0,
        "tle_line1": "1 31757U 99025CFG 25344.29300623  .00000716  00000+0  35867-3 0  9996",
        "tle_line2": "2 31757  98.7682   6.4320 0217958  90.9407 271.6741 14.07915605638475"
      },
      "geometry": {
        "type": "Point",
        "coordinates": [
          45.38502836146753,
          -75.58307649732217
        ]
      }
    },
    {
      "type": "Feature",
      "properties": {
        "norad_id": 31758,
        "name": "FENGYUN 1C DEB",
        "group": "fengyun-1c-debris",
        "lat": 55.9725312355958,
        "lon": -172.38123784842426,
        "alt_km": 551.7901050157852,
        "timestamp": "2025-12-12T09:49:09.015862+00:00",
        "meta_object_name": "FENGYUN 1C DEB",
        "meta_object_id": "1999-025CFH",
        "meta_epoch": "2025-12-11T19:57:11.267424",
        "meta_mean_motion": 14.41985835,
        "meta_eccentricity": 0.03182798,
        "meta_inclination": 98.0613,
        "meta_ra_of_asc_node": 354.9556,
        "meta_arg_of_pericenter": 93.0185,
        "meta_mean_anomaly": 270.747,
        "meta_ephemeris_type": 0,
        "meta_classification_type": "U",
        "meta_norad_cat_id": 31758,
        "meta_element_set_no": 999,
        "meta_rev_at_epoch": 94187,
        "meta_bstar": 0.0031671711,
        "meta_mean_motion_dot": 0.00019159,
        "meta_mean_motion_ddot": 0,
        "tle_line1": "1 31758U 99025CFH 25345.83138041  .00019159  00000+0  31672-2 0  9991",
        "tle_line2": "2 31758  98.0613 354.9556 0318279  93.0185 270.7470 14.41985835941870"
      },
      "geometry": {
        "type": "Point",
        "coordinates": [
          -172.38123784842426,
          55.9725312355958
        ]
      }
    }
  ]
}